[{"OBJECT_NAME":"STARLINK-34103","OBJECT_ID":"2025-099L","EPOCH":"2026-03-09T08:13:34.325760","MEAN_MOTION":15.27593572,"ECCENTRICITY":0.00025578,"INCLINATION":43.0025,"RA_OF_ASC_NODE":178.1479,"ARG_OF_PERICENTER":281.8543,"MEAN_ANOMALY":78.2021,"EPHEMERIS_TYPE":0,"CLASSIFICATION_TYPE":"U","NORAD_CAT_ID":63962,"ELEMENT_SET_NO":999,"REV_AT_EPOCH":4728,"BSTAR":0.0014155491,"MEAN_MOTION_DOT":0.00038914,"MEAN_MOTION_DDOT":0},{"OBJECT_NAME":"TITAN 3C TRANSTAGE DEB","OBJECT_ID":"1965-082PT","EPOCH":"2026-03-09T13:23:41.116128","MEAN_MOTION":15.28908269,"ECCENTRICITY":0.00104371,"INCLINATION":32.0266,"RA_OF_ASC_NODE":255.1391,"ARG_OF_PERICENTER":172.8339,"MEAN_ANOMALY":187.2474,"EPHEMERIS_TYPE":0,"CLASSIFICATION_TYPE":"U","NORAD_CAT_ID":3462,"ELEMENT_SET_NO":999,"REV_AT_EPOCH":24824,"BSTAR":0.0004444037,"MEAN_MOTION_DOT":0.00012939,"MEAN_MOTION_DDOT":0}]
